OBJECT_NAME,OBJECT_ID,EPOCH,MEAN_MOTION,ECCENTRICITY,INCLINATION,RA_OF_ASC_NODE,ARG_OF_PERICENTER,MEAN_ANOMALY,EPHEMERIS_TYPE,CLASSIFICATION_TYPE,NORAD_CAT_ID,ELEMENT_SET_NO,REV_AT_EPOCH,BSTAR,MEAN_MOTION_DOT,MEAN_MOTION_DDOT
PICO-02A021,2024-149BY,2026-05-10T00:29:04.835904,15.02893580,.0006386,97.6765,209.1924,136.9512,223.2213,0,U,60538,999,9400,.27444E-3,.3623E-4,0
ICEYE-X43,2024-149BZ,2026-05-10T04:45:37.916928,14.99736977,.0004167,97.6770,207.6878,209.1015,150.9977,0,U,60539,999,9442,.14082E-3,.168E-4,0
HAWK-10A,2024-149CA,2026-05-10T04:32:51.078912,14.96394740,.0003265,97.6898,206.7557,175.0404,185.0850,0,U,60540,999,9430,.50085E-4,.51E-5,0
UMBRA-09,2024-149CB,2026-05-10T05:11:09.629088,15.16892376,.0001465,97.6960,216.8111,137.8680,222.2665,0,U,60541,999,9496,.40931E-3,.7996E-4,0
QPS-SAR-8 (AMATERU-IV),2024-149CC,2026-05-10T04:51:40.480704,15.03750703,.000214,97.6667,209.6840,202.8524,157.2607,0,U,60542,999,9456,.21302E-3,.2862E-4,0
ARCTIC WEATHER SATELLITE,2024-149CD,2026-05-10T04:56:10.720896,14.89792133,.0001357,97.6808,201.7538,189.9349,170.1842,0,U,60543,999,9364,.66627E-4,.586E-5,0
CAPELLA-15 (ACADIA-5),2024-149CE,2026-05-10T04:09:36.847296,14.92416940,.0004017,97.6777,204.0213,185.4995,174.6180,0,U,60544,999,9418,.6551E-4,.616E-5,0
HAWK-10B,2024-149CF,2026-05-10T04:32:38.442048,14.96395105,.000457,97.6818,206.1491,206.4136,153.6853,0,U,60545,999,9430,.50985E-4,.521E-5,0
ICEYE-X39,2024-149CG,2026-05-10T04:20:39.657120,14.99698033,.0002072,97.6826,207.7194,179.3681,180.7545,0,U,60546,999,9442,.16151E-3,.1934E-4,0
UMBRA-10,2024-149CH,2026-05-10T05:10:30.947808,15.16893681,.0002323,97.6963,216.8352,113.3165,246.8312,0,U,60547,999,9497,.43922E-3,.8587E-4,0
ICEYE-X33,2024-149CJ,2026-05-10T04:02:21.031008,15.00900181,.0001022,97.7158,209.5452,345.5672,14.5522,0,U,60548,999,9450,.26365E-3,.3297E-4,0
ICEYE-X40,2024-149CK,2026-05-10T05:23:59.898048,14.97818012,.0004667,97.6809,207.3327,181.8001,178.3205,0,U,60549,999,9439,.157E-3,.1787E-4,0
SATELIOT_1,2024-149CL,2026-05-10T03:39:04.212576,14.97909840,.0006584,97.6742,206.6858,187.0302,173.0829,0,U,60550,999,9437,.21247E-3,.2446E-4,0
BRO-14,2024-149CM,2026-05-10T04:58:27.077376,14.96101844,.0005933,97.6873,206.6675,214.0116,146.0726,0,U,60551,999,9431,.50967E-4,.516E-5,0
SATELIOT_3,2024-149CN,2026-05-10T04:39:52.471584,14.97897129,.0004461,97.6824,207.4848,198.8096,161.2962,0,U,60552,999,9439,.82215E-4,.91E-5,0
BRO-15,2024-149CP,2026-05-10T04:31:46.892352,14.96063991,.0007326,97.6806,206.2871,205.9803,154.1051,0,U,60553,999,9432,.82519E-5,.36E-6,0
UM5-RIBAT,2024-149CQ,2026-05-10T04:56:43.933920,15.00861135,.0003002,97.6658,208.5185,121.7106,238.4411,0,U,60554,999,9449,.14518E-3,.1787E-4,0
UM5-EOSAT,2024-149CR,2026-05-10T04:23:36.199968,15.01265207,.0006442,97.6651,209.3960,228.4030,131.6642,0,U,60555,999,9451,.14423E-3,.1794E-4,0
LASARSAT,2024-247Q,2026-05-09T09:05:31.474464,15.44007397,.00045054,44.9740,119.8729,90.2978,269.8427,0,U,62391,999,7731,.5666619E-3,.2615E-3,0
CROCUBE,2024-247T,2026-05-10T00:02:04.198272,15.45608845,.0004189,44.9719,114.2849,97.3886,262.7480,0,U,62394,999,7743,.51051E-3,.24854E-3,0
TEVEL2-4,2025-052D,2026-05-09T16:37:54.135552,15.33281085,.00011737,97.3941,26.0540,182.4457,177.6780,0,U,63213,999,6421,.39678028E-3,.12689E-3,0
TEVEL2-5,2025-052E,2026-05-09T23:17:30.412896,15.33133002,.000121,97.3940,26.2896,180.6979,179.4262,0,U,63214,999,6425,.3799E-3,.12088E-3,0
TEVEL2-6,2025-052F,2026-05-10T04:15:53.545248,15.33099860,.0001286,97.3942,26.4817,188.6956,171.4264,0,U,63215,999,6428,.34812E-3,.11057E-3,0
TEVEL2-1,2025-052H,2026-05-10T04:39:36.370080,15.32612197,.0000754,97.3913,26.1658,214.8521,145.2672,0,U,63217,999,6427,.34181E-3,.1069E-3,0
TEVEL2-3,2025-052J,2026-05-10T04:33:42.599232,15.32659740,.0000727,97.3917,26.1793,216.1267,143.9926,0,U,63218,999,6427,.34823E-3,.10909E-3,0
TEVEL2-2,2025-052K,2026-05-10T04:40:18.701760,15.32618210,.0000751,97.3917,26.1683,220.7303,139.3883,0,U,63219,999,6427,.33945E-3,.10617E-3,0
TEVEL2-9,2025-052AD,2026-05-10T04:33:17.343648,15.30746403,.0004046,97.3975,25.6178,279.6718,80.4066,0,U,63237,999,6421,.3403E-3,.10041E-3,0
TEVEL2-7,2025-052AE,2026-05-09T16:49:04.090656,15.30471471,.0004165,97.3979,25.0611,282.2953,77.7822,0,U,63238,999,6413,.37294889E-3,.10919E-3,0
TEVEL2-8,2025-052AF,2026-05-10T03:59:23.091936,15.30461893,.0004109,97.3981,25.5032,280.7377,79.3401,0,U,63239,999,6420,.31535E-3,.9216E-4,0
HADES-ICM,2025-052BN,2026-05-09T16:56:07.355616,15.90607553,.00081822,97.3748,33.5239,165.6972,194.4534,0,U,63492,999,6471,.18594802E-2,.570308E-2,.12819213E-3
